COMMENT,ORIGINATOR,NORAD_CAT_ID,OBJECT_NAME,OBJECT_TYPE,CLASSIFICATION_TYPE,INTLDES,EPOCH,EPOCH_MICROSECONDS,MEAN_MOTION,ECCENTRICITY,INCLINATION,RA_OF_ASC_NODE,ARG_OF_PERICENTER,MEAN_ANOMALY,EPHEMERIS_TYPE,ELEMENT_SET_NO,REV_AT_EPOCH,BSTAR,MEAN_MOTION_DOT,MEAN_MOTION_DDOT,FILE,TLE_LINE0,TLE_LINE1,TLE_LINE2,OBJECT_ID,OBJECT_NUMBER,SEMIMAJOR_AXIS,PERIOD,APOGEE,PERIGEE,DECAYED
GENERATED VIA SPACETRACK.ORG API,18 SPCS,26998,TIMED,PAYLOAD,U,01055B,9/10/24 2:07,59424,14.91991139,0.0000806,74.0698,91.2456,171.1473,188.9725,0,999,23462,0.0005154,0.0000519,0,4481478,0 TIMED,1 26998U 01055B   24254.08847291  .00005190  00000-0  51540-3 0  9994,2 26998  74.0698  91.2456 0000806 171.1473 188.9725 14.91991139234629,2001-055B,26998,6969.865,96.515,592.291,591.168,0
GENERATED VIA SPACETRACK.ORG API,18 SPCS,26998,TIMED,PAYLOAD,U,01055B,9/10/24 16:36,379776,14.91996673,0.0000778,74.0698,90.0368,169.3487,190.7713,0,999,23457,0.00050814,0.00005117,0,4483177,0 TIMED,1 26998U 01055B   24254.69194884  .00005117  00000-0  50814-3 0  9996,2 26998  74.0698  90.0368 0000778 169.3487 190.7713 14.91996673234570,2001-055B,26998,6969.847,96.515,592.255,591.17,0
GENERATED VIA SPACETRACK.ORG API,18 SPCS,26998,TIMED,PAYLOAD,U,01055B,9/11/24 13:31,836768,14.92004362,0.0000736,74.0696,88.2907,166.3312,193.7891,0,999,23484,0.00047711,0.00004803,0,4483993,0 TIMED,1 26998U 01055B   24255.56363237  .00004803  00000-0  47711-3 0  9996,2 26998  74.0696  88.2907 0000736 166.3312 193.7891 14.92004362234840,2001-055B,26998,6969.823,96.514,592.201,591.176,0
GENERATED VIA SPACETRACK.ORG API,18 SPCS,26998,TIMED,PAYLOAD,U,01055B,9/11/24 21:34,411360,14.92007745,0.0000716,74.0697,87.6191,165.8994,194.2208,0,999,23475,0.0004797,0.0000483,0,4485202,0 TIMED,1 26998U 01055B   24255.89889365  .00004830  00000-0  47970-3 0  9994,2 26998  74.0697  87.6191 0000716 165.8994 194.2208 14.92007745234753,2001-055B,26998,6969.813,96.514,592.177,591.179,0
GENERATED VIA SPACETRACK.ORG API,18 SPCS,26998,TIMED,PAYLOAD,U,01055B,9/12/24 13:39,265056,14.9202245,0.0000697,74.0696,86.276,164.1723,195.9482,0,999,23485,0.00077432,0.00007826,0,4486509,0 TIMED,1 26998U 01055B   24256.56941279  .00007826  00000-0  77432-3 0  9996,2 26998  74.0696  86.2760 0000697 164.1723 195.9482 14.92022450234852,2001-055B,26998,6969.767,96.513,592.118,591.146,0
GENERATED VIA SPACETRACK.ORG API,18 SPCS,26998,TIMED,PAYLOAD,U,01055B,9/12/24 20:06,489824,14.92019564,0.0000694,74.0696,85.7387,162.1167,198.0041,0,999,23503,0.00059454,0.00005998,0,4486850,0 TIMED,1 26998U 01055B   24256.83762141  .00005998  00000-0  59454-3 0  9997,2 26998  74.0696  85.7387 0000694 162.1167 198.0041 14.92019564235036,2001-055B,26998,6969.776,96.513,592.125,591.157,0
GENERATED VIA SPACETRACK.ORG API,18 SPCS,26998,TIMED,PAYLOAD,U,01055B,9/12/24 21:42,729920,14.92021266,0.0000691,74.0695,85.6043,162.1465,197.9743,0,999,23490,0.00061117,0.00006168,0,4487389,0 TIMED,1 26998U 01055B   24256.90467280  .00006168  00000-0  61117-3 0  9990,2 26998  74.0695  85.6043 0000691 162.1465 197.9743 14.92021266234905,2001-055B,26998,6969.771,96.513,592.117,591.154,0
GENERATED VIA SPACETRACK.ORG API,18 SPCS,26998,TIMED,PAYLOAD,U,01055B,9/14/24 13:56,555200,14.92038948,0.0000578,74.0693,82.2463,153.4601,206.6611,0,999,23515,0.00060659,0.00006124,0,4490768,0 TIMED,1 26998U 01055B   24258.58095550  .00006124  00000-0  60659-3 0  9995,2 26998  74.0693  82.2463 0000578 153.4601 206.6611 14.92038948235156,2001-055B,26998,6969.716,96.512,591.984,591.178,0
GENERATED VIA SPACETRACK.ORG API,18 SPCS,26998,TIMED,PAYLOAD,U,01055B,9/14/24 20:22,364384,14.92039112,0.0000572,74.0692,81.7089,150.7528,209.3687,0,999,23533,0.00048605,0.00004898,0,4491016,0 TIMED,1 26998U 01055B   24258.84915931  .00004898  00000-0  48605-3 0  9991,2 26998  74.0692  81.7089 0000572 150.7528 209.3687 14.92039112235332,2001-055B,26998,6969.715,96.512,591.979,591.182,0
GENERATED VIA SPACETRACK.ORG API,18 SPCS,26998,TIMED,PAYLOAD,U,01055B,9/14/24 21:59,555232,14.92039772,0.0000571,74.0691,81.5746,150.4871,209.6344,0,999,23520,0.00048247,0.00004862,0,4491570,0 TIMED,1 26998U 01055B   24258.91621013  .00004862  00000-0  48247-3 0  9997,2 26998  74.0691  81.5746 0000571 150.4871 209.6344 14.92039772235207,2001-055B,26998,6969.713,96.512,591.976,591.18,0
GENERATED VIA SPACETRACK.ORG API,18 SPCS,26998,TIMED,PAYLOAD,U,01055B,9/15/24 20:31,999008,14.92048698,0.0000522,74.0689,79.6939,146.1252,213.9964,0,999,23548,0.00049804,0.00005021,0,4493104,0 TIMED,1 26998U 01055B   24259.85491897  .00005021  00000-0  49804-3 0  9994,2 26998  74.0689  79.6939 0000522 146.1252 213.9964 14.92048698235480,2001-055B,26998,6969.685,96.512,591.914,591.187,0
GENERATED VIA SPACETRACK.ORG API,18 SPCS,26998,TIMED,PAYLOAD,U,01055B,9/15/24 22:07,152704,14.92049432,0.0000516,74.0689,79.5595,145.4309,214.6908,0,999,23535,0.00050122,0.00005054,0,4493626,0 TIMED,1 26998U 01055B   24259.92196936  .00005054  00000-0  50122-3 0  9999,2 26998  74.0689  79.5595 0000516 145.4309 214.6908 14.92049432235354,2001-055B,26998,6969.683,96.512,591.908,591.188,0
GENERATED VIA SPACETRACK.ORG API,18 SPCS,26998,TIMED,PAYLOAD,U,01055B,9/16/24 14:13,614496,14.92053111,0.0000469,74.0689,78.2161,142.5376,217.584,0,999,23545,0.00040582,0.00004084,0,4494952,0 TIMED,1 26998U 01055B   24260.59247239  .00004084  00000-0  40582-3 0  9998,2 26998  74.0689  78.2161 0000469 142.5376 217.5840 14.92053111235455,2001-055B,26998,6969.672,96.511,591.864,591.21,0
GENERATED VIA SPACETRACK.ORG API,18 SPCS,26998,TIMED,PAYLOAD,U,01055B,9/16/24 20:39,135968,14.92055403,0.0000449,74.0689,77.6788,141.1572,218.9643,0,999,23563,0.0004094,0.00004121,0,4495216,0 TIMED,1 26998U 01055B   24260.86067287  .00004121  00000-0  40940-3 0  9991,2 26998  74.0689  77.6788 0000449 141.1572 218.9643 14.92055403235636,2001-055B,26998,6969.665,96.511,591.842,591.217,0
GENERATED VIA SPACETRACK.ORG API,18 SPCS,26998,TIMED,PAYLOAD,U,01055B,9/16/24 22:15,268064,14.92055776,0.0000444,74.0689,77.5444,140.2359,219.8857,0,999,23550,0.00040233,0.00004049,0,4495681,0 TIMED,1 26998U 01055B   24260.92772301  .00004049  00000-0  40233-3 0  9992,2 26998  74.0689  77.5444 0000444 140.2359 219.8857 14.92055776235508,2001-055B,26998,6969.663,96.511,591.838,591.219,0
GENERATED VIA SPACETRACK.ORG API,18 SPCS,26998,TIMED,PAYLOAD,U,01055B,9/17/24 14:21,185536,14.92071902,0.0000401,74.0689,76.2011,136.3883,223.7331,0,999,23560,0.00077026,0.00007795,0,4497321,0 TIMED,1 26998U 01055B   24261.59821974  .00007795  00000-0  77026-3 0  9998,2 26998  74.0689  76.2011 0000401 136.3883 223.7331 14.92071902235606,2001-055B,26998,6969.613,96.51,591.758,591.199,0
GENERATED VIA SPACETRACK.ORG API,18 SPCS,26998,TIMED,PAYLOAD,U,01055B,9/17/24 20:47,752800,14.92065001,0.0000397,74.069,75.6636,134.0451,226.0764,0,999,23578,0.0004415,0.00004448,0,4497452,0 TIMED,1 26998U 01055B   24261.86642075  .00004448  00000-0  44150-3 0  9995,2 26998  74.0690  75.6636 0000397 134.0451 226.0764 14.92065001235782,2001-055B,26998,6969.635,96.511,591.776,591.223,0
GENERATED VIA SPACETRACK.ORG API,18 SPCS,26998,TIMED,PAYLOAD,U,01055B,9/17/24 22:24,840832,14.92065379,0.0000387,74.069,75.5293,134.6725,225.4489,0,999,23565,0.00043323,0.00004364,0,4497690,0 TIMED,1 26998U 01055B   24261.93347038  .00004364  00000-0  43323-3 0  9992,2 26998  74.0690  75.5293 0000387 134.6725 225.4489 14.92065379235650,2001-055B,26998,6969.633,96.511,591.768,591.229,0
GENERATED VIA SPACETRACK.ORG API,18 SPCS,26998,TIMED,PAYLOAD,U,01055B,9/18/24 12:53,639168,14.92068094,0.0000357,74.0691,74.3203,131.2924,228.829,0,999,23574,0.00035108,0.00003529,0,4498437,0 TIMED,1 26998U 01055B   24262.53691712  .00003529  00000-0  35108-3 0  9994,2 26998  74.0691  74.3203 0000357 131.2924 228.8290 14.92068094235744,2001-055B,26998,6969.625,96.51,591.739,591.241,0
GENERATED VIA SPACETRACK.ORG API,18 SPCS,26998,TIMED,PAYLOAD,U,01055B,9/18/24 22:32,86144,14.92070483,0.0000349,74.0694,73.5142,126.8553,233.2662,0,999,23580,0.00033265,0.00003342,0,4498850,0 TIMED,1 26998U 01055B   24262.93921396  .00003342  00000-0  33265-3 0  9997,2 26998  74.0694  73.5142 0000349 126.8553 233.2662 14.92070483235804,2001-055B,26998,6969.618,96.51,591.726,591.239,0
GENERATED VIA SPACETRACK.ORG API,18 SPCS,26998,TIMED,PAYLOAD,U,01055B,9/19/24 0:09,153440,14.92070961,0.000035,74.0693,73.3799,126.9799,233.1415,0,999,23595,0.00033262,0.00003342,0,4498774,0 TIMED,1 26998U 01055B   24263.00626335  .00003342  00000-0  33262-3 0  9998,2 26998  74.0693  73.3799 0000350 126.9799 233.1415 14.92070961235956,2001-055B,26998,6969.616,96.51,591.725,591.237,0
GENERATED VIA SPACETRACK.ORG API,18 SPCS,26998,TIMED,PAYLOAD,U,01055B,9/19/24 13:01,631328,14.92075487,0.0000341,74.0694,72.3052,123.3539,236.7677,0,999,23589,0.00036677,0.00003689,0,4499371,0 TIMED,1 26998U 01055B   24263.54265777  .00003689  00000-0  36677-3 0  9993,2 26998  74.0694  72.3052 0000341 123.3539 236.7677 14.92075487235891,2001-055B,26998,6969.602,96.51,591.705,591.229,0
GENERATED VIA SPACETRACK.ORG API,18 SPCS,26998,TIMED,PAYLOAD,U,01055B,9/19/24 21:04,849440,14.92078565,0.0000326,74.0695,71.6337,115.146,244.9757,0,999,23608,0.00039546,0.00003982,0,4499636,0 TIMED,1 26998U 01055B   24263.87790335  .00003982  00000-0  39546-3 0  9996,2 26998  74.0695  71.6337 0000326 115.1460 244.9757 14.92078565236087,2001-055B,26998,6969.592,96.51,591.685,591.23,0
GENERATED VIA SPACETRACK.ORG API,18 SPCS,26998,TIMED,PAYLOAD,U,01055B,9/20/24 11:33,171712,14.9208201,0.0000317,74.0697,70.4248,109.8327,250.289,0,999,23603,0.00036531,0.00003675,0,4500145,0 TIMED,1 26998U 01055B   24264.48134458  .00003675  00000-0  36531-3 0  9992,2 26998  74.0697  70.4248 0000317 109.8327 250.2890 14.92082010236032,2001-055B,26998,6969.582,96.509,591.668,591.226,0
